STARLINK-37074          
1 68073U 26042E   26075.25003472 -.01420918  00000+0 -73946-2 0  9998
2 68073  53.1598 161.8699 0001084 100.0745 155.3273 15.82813551  3106
STARLINK-37045          
1 68074U 26042F   26075.25003472 -.01497071  00000+0 -78015-2 0  9995
2 68074  53.1597 161.8612 0001009  88.8584 170.6490 15.82927545  3102
STARLINK-37026          
1 68075U 26042G   26075.25003472 -.01550258  00000+0 -80817-2 0  9996
2 68075  53.1596 161.8526 0000846  84.0679 179.5670 15.83021886  3109
STARLINK-37023          
1 68076U 26042H   26075.25003472 -.01544115  00000+0 -80100-2 0  9997
2 68076  53.1595 161.8442 0001072  99.6342 168.0681 15.83111174  3102
STARLINK-37036          
1 68077U 26042J   26075.25003472 -.01545365  00000+0 -79697-2 0  9995
2 68077  53.1595 161.8359 0001162  88.5559 183.1200 15.83235005  3102
STARLINK-36973          
1 68078U 26042K   26075.25003472 -.01568107  00000+0 -80209-2 0  9996
2 68078  53.1597 161.8191 0000887  98.7764 180.9288 15.83452296  3107
STARLINK-37063          
1 68079U 26042L   26075.25003472 -.01550485  00000+0 -79491-2 0  9998
2 68079  53.1594 161.8276 0001095  95.9568 179.6610 15.83368419  3109
STARLINK-37051          
1 68080U 26042M   26075.25003472 -.01581001  00000+0 -80211-2 0  9990
2 68080  53.1595 161.8024 0000960  77.9040 209.8317 15.83646151  3100
STARLINK-37066          
1 68081U 26042N   26075.25003472 -.01578364  00000+0 -80467-2 0  9992
2 68081  53.1600 161.8109 0001051  98.7101 185.0504 15.83538781  3105
STARLINK-37054          
1 68082U 26042P   26075.25003472 -.01577990  00000+0 -79522-2 0  9997
2 68082  53.1597 161.7945 0001196 102.6414 188.9736 15.83777296  3105
STARLINK-37065          
1 68083U 26042Q   26075.25003472 -.01581424  00000+0 -79337-2 0  9999
2 68083  53.1599 161.7864 0001016  89.4999 206.0805 15.83879480  3106
STARLINK-37037          
1 68084U 26042R   26075.25003472 -.01587099  00000+0 -79346-2 0  9994
2 68084  53.1594 161.7780 0000747  89.9595 209.6424 15.83965180  3105
